NORAD_CAT_ID,OBJECT_NAME,OBJECT_TYPE,EPOCH,MEAN_MOTION,ECCENTRICITY,INCLINATION,RA_OF_ASC_NODE,ARG_OF_PERICENTER,MEAN_ANOMALY,BSTAR,MEAN_MOTION_DOT,MEAN_MOTION_DDOT,TLE_LINE0,TLE_LINE1,TLE_LINE2,SEMIMAJOR_AXIS,PERIOD,APOGEE,PERIGEE,DECAYED
49437.0,STARLINK-3130,PAYLOAD,2022-10-04 16:36:06,15.08854319,0.0002184,53.2201,69.5656,70.0013,290.1214,-1.4688e-08,-2.89e-06,0.0,0 STARLINK-3130,1 49437U 21104AF  22277.69174130 -.00000289  00000-0 -14688-7 0  9991,2 49437  53.2201  69.5656 0002184  70.0013 290.1214 15.08854319 49900,6917.837,95.437,541.212,538.191,0.0
49437.0,STARLINK-3130,PAYLOAD,2022-10-05 03:43:49,15.08836349,0.0001994,53.2184,67.4841,46.8117,313.3042,4.589100000000001e-05,4.42e-06,0.0,0 STARLINK-3130,1 49437U 21104AF  22278.15543092  .00000442  00000-0  45891-4 0  9996,2 49437  53.2184  67.4841 0001994  46.8117 313.3042 15.08836349 51045,6917.892,95.438,541.136,538.377,0.0
49437.0,STARLINK-3130,PAYLOAD,2022-10-05 10:05:21,15.08838033,0.000194,53.2171,66.2938,49.9982,310.118,2.2155e-05,6.4e-07,0.0,0 STARLINK-3130,1 49437U 21104AF  22278.42038947  .00000064  00000-0  22155-4 0  9992,2 49437  53.2171  66.2938 0001940  49.9982 310.1180 15.08838033 50016,6917.886,95.438,541.0930000000002,538.409,0.0
49437.0,STARLINK-3130,PAYLOAD,2022-10-05 16:26:55,15.08817638,0.0001968,53.2175,65.1061,48.6862,311.4299,0.00018606,2.673e-05,0.0,0 STARLINK-3130,1 49437U 21104AF  22278.68536108  .00002673  00000-0  18606-3 0  9995,2 49437  53.2175  65.1061 0001968  48.6862 311.4299 15.08817638 51124,6917.949000000001,95.439,541.175,538.452,0.0
49437.0,STARLINK-3130,PAYLOAD,2022-10-06 09:56:08,15.08838162,0.0002017,53.2187,61.8353,41.6898,318.4247,3.6807e-05,2.98e-06,0.0,0 STARLINK-3130,1 49437U 21104AF  22279.41399140  .00000298  00000-0  36807-4 0  9995,2 49437  53.2187  61.8353 0002017  41.6898 318.4247 15.08838162 50160,6917.886,95.438,541.146,538.356,0.0
49437.0,STARLINK-3130,PAYLOAD,2022-10-06 16:17:41,15.08834864,0.0002037,53.2197,60.648,37.4514,322.6620000000001,4.2379e-05,3.86e-06,0.0,0 STARLINK-3130,1 49437U 21104AF  22279.67895426  .00000386  00000-0  42379-4 0  9990,2 49437  53.2197  60.6480 0002037  37.4514 322.6620 15.08834864 50201,6917.896,95.438,541.17,538.352,0.0
49437.0,STARLINK-3130,PAYLOAD,2022-10-06 21:03:50,15.08840032,0.0002073999999999,53.2183,59.7536,39.9915,320.1229,7.646399999999999e-05,9.29e-06,0.0,0 STARLINK-3130,1 49437U 21104AF  22279.87767032  .00000929  00000-0  76464-4 0  9998,2 49437  53.2183  59.7536 0002074  39.9915 320.1229 15.08840032 51304,6917.88,95.438,541.18,538.311,0.0
49437.0,STARLINK-3130,PAYLOAD,2022-10-07 11:22:18,15.08838391,0.0002004,53.2179,57.0781,36.7669,323.346,0.00015111,2.117e-05,0.0,0 STARLINK-3130,1 49437U 21104AF  22280.47383005  .00002117  00000-0  15111-3 0  9992,2 49437  53.2179  57.0781 0002004  36.7669 323.3460 15.08838391 50324,6917.885,95.438,541.137,538.364,0.0
49437.0,STARLINK-3130,PAYLOAD,2022-10-07 19:19:14,15.08835351,0.0002331999999999,53.2178,55.5915,54.6779,305.4431,0.00011793,1.589e-05,0.0,0 STARLINK-3130,1 49437U 21104AF  22280.80503433  .00001589  00000-0  11793-3 0  9992,2 49437  53.2178  55.5915 0002332  54.6779 305.4431 15.08835351 50377,6917.895,95.438,541.373,538.146,0.0
49437.0,STARLINK-3130,PAYLOAD,2022-10-08 01:40:47,15.08842363,0.0001937,53.2178,54.402,35.685,324.4272,0.00010529,1.388e-05,0.0,0 STARLINK-3130,1 49437U 21104AF  22281.06999018  .00001388  00000-0  10529-3 0  9992,2 49437  53.2178  54.4020 0001937  35.6850 324.4272 15.08842363 51489,6917.873000000001,95.437,541.078,538.398,0.0
49437.0,STARLINK-3130,PAYLOAD,2022-10-08 08:02:20,15.0883438,0.0001926,53.2183,53.2168,37.5266,322.5861,0.00012222,1.657e-05,0.0,0 STARLINK-3130,1 49437U 21104AF  22281.33495511  .00001657  00000-0  12222-3 0  9992,2 49437  53.2183  53.2168 0001926  37.5266 322.5861 15.08834380 51523,6917.898,95.438,541.095,538.43,0.0
49437.0,STARLINK-3130,PAYLOAD,2022-10-08 12:48:30,15.08826362,0.0002024,53.2193,52.3225,38.4783,321.6353,2.2092e-05,6.3e-07,0.0,0 STARLINK-3130,1 49437U 21104AF  22281.53368513  .00000063  00000-0  22092-4 0  9992,2 49437  53.2193  52.3225 0002024  38.4783 321.6353 15.08826362 50483,6917.922,95.438,541.187,538.387,0.0
49437.0,STARLINK-3130,PAYLOAD,2022-10-08 19:10:02,15.08836499,0.0002166999999999,53.219,51.1302,37.3549,322.7593,5.9397e-05,6.57e-06,0.0,0 STARLINK-3130,1 49437U 21104AF  22281.79863877  .00000657  00000-0  59397-4 0  9990,2 49437  53.2190  51.1302 0002167  37.3549 322.7593 15.08836499 50524,6917.891,95.438,541.255,538.257,0.0
49437.0,STARLINK-3130,PAYLOAD,2022-10-09 12:39:17,15.08838545,0.0001969,53.219,47.8598,38.5073,321.606,-3.2019e-06,-3.39e-06,0.0,0 STARLINK-3130,1 49437U 21104AF  22282.52728025 -.00000339  00000-0 -32019-5 0  9999,2 49437  53.2190  47.8598 0001969  38.5073 321.6060 15.08838545 51709,6917.885,95.438,541.112,538.388,0.0
49437.0,STARLINK-3130,PAYLOAD,2022-10-09 15:50:03,15.0884103,0.0001937,53.2191,47.2649,40.2835,319.83,2.9822e-05,1.86e-06,0.0,0 STARLINK-3130,1 49437U 21104AF  22282.65975795  .00000186  00000-0  29822-4 0  9996,2 49437  53.2191  47.2649 0001937  40.2835 319.8300 15.08841030 50654,6917.877,95.437,541.082,538.4019999999998,0.0
49437.0,STARLINK-3130,PAYLOAD,2022-10-10 01:22:21,15.08844587,0.0002063,53.2192,45.48,40.6828,319.4318,0.00015571,2.191e-05,0.0,0 STARLINK-3130,1 49437U 21104AF  22283.05719301  .00002191  00000-0  15571-3 0  9993,2 49437  53.2192  45.4800 0002063  40.6828 319.4318 15.08844587 51781,6917.866,95.437,541.159,538.304,0.0
49437.0,STARLINK-3130,PAYLOAD,2022-10-10 12:30:03,15.08838106,0.0002234,53.2179,43.3997,37.6984,322.4164,0.00014148,1.964e-05,0.0,0 STARLINK-3130,1 49437U 21104AF  22283.52087813  .00001964  00000-0  14148-3 0  9997,2 49437  53.2179  43.3997 0002234  37.6984 322.4164 15.08838106 50781,6917.886,95.438,541.297,538.206,0.0
49437.0,STARLINK-3130,PAYLOAD,2022-10-10 17:16:12,15.08842614,0.0002356999999999,53.2175,42.5081,36.0138,324.1013,0.00019529,2.821e-05,0.0,0 STARLINK-3130,1 49437U 21104AF  22283.71959394  .00002821  00000-0  19529-3 0  9991,2 49437  53.2175  42.5081 0002357  36.0138 324.1013 15.08842614 50817,6917.871999999999,95.437,541.368,538.107,0.0
49437.0,STARLINK-3130,PAYLOAD,2022-10-11 10:45:29,15.08827405,0.0001988,53.2186,39.2363,28.9661,331.1441,-0.00011216,-2.072e-05,0.0,0 STARLINK-3130,1 49437U 21104AF  22284.44825319 -.00002072  00000-0 -11216-3 0  9996,2 49437  53.2186  39.2363 0001988  28.9661 331.1441 15.08827405 51999,6917.919,95.438,541.159,538.409,0.0
49437.0,STARLINK-3130,PAYLOAD,2022-10-11 17:07:02,15.08820785,0.0001598,53.2181,38.0452,30.468000000000004,329.6405,-0.00013646,-2.458e-05,0.0,0 STARLINK-3130,1 49437U 21104AF  22284.71321968 -.00002458  00000-0 -13646-3 0  9994,2 49437  53.2181  38.0452 0001598  30.4680 329.6405 15.08820785 52038,6917.939,95.439,540.91,538.6990000000002,0.0
49437.0,STARLINK-3130,PAYLOAD,2022-10-12 12:11:39,15.08831958,0.0002306,53.2211,34.4834,43.1681,316.9492,1.3967e-05,-6.6e-07,0.0,0 STARLINK-3130,1 49437U 21104AF  22285.50809718 -.00000066  00000-0  13967-4 0  9995,2 49437  53.2211  34.4834 0002306  43.1681 316.9492 15.08831958 52158,6917.905,95.438,541.365,538.175,0.0
49437.0,STARLINK-3130,PAYLOAD,2022-10-12 13:47:02,15.08841704,0.0002399999999999,53.216,34.1803,36.58,323.5355,9.4126e-05,1.21e-05,0.0,0 STARLINK-3130,1 49437U 21104AF  22285.57432941  .00001210  00000-0  94126-4 0  9999,2 49437  53.2160  34.1803 0002400  36.5800 323.5355 15.08841704 51092,6917.875,95.437,541.4,538.08,0.0
49437.0,STARLINK-3130,PAYLOAD,2022-10-12 16:57:48,15.08846293,0.0002434,53.2167,33.586,27.1351,332.9768,7.6315e-05,9.27e-06,0.0,0 STARLINK-3130,1 49437U 21104AF  22285.70680665  .00000927  00000-0  76315-4 0  9996,2 49437  53.2167  33.5860 0002434  27.1351 332.9768 15.08846293 52180,6917.861,95.437,541.41,538.0419999999998,0.0
49437.0,STARLINK-3130,PAYLOAD,2022-10-13 10:27:02,15.08839437,0.0002365,53.2176,30.3151,33.8677,326.2465,0.0002389,3.516e-05,0.0,0 STARLINK-3130,1 49437U 21104AF  22286.43544989  .00003516  00000-0  23890-3 0  9991,2 49437  53.2176  30.3151 0002365  33.8677 326.2465 15.08839437 52290,6917.882,95.438,541.383,538.111,0.0
49437.0,STARLINK-3130,PAYLOAD,2022-10-14 07:07:04,15.08842441,0.0002537,53.2157,26.4486,24.6372,335.474,-2.555e-05,-6.95e-06,0.0,0 STARLINK-3130,1 49437U 21104AF  22287.29657606 -.00000695  00000-0 -25550-4 0  9990,2 49437  53.2157  26.4486 0002537  24.6372 335.4740 15.08842441 52429,6917.873000000001,95.437,541.493,537.9830000000002,0.0
49437.0,STARLINK-3130,PAYLOAD,2022-10-14 11:53:13,15.08841749,0.0002542,53.2166,25.5575,26.0216,334.0903,4.6661e-07,-2.81e-06,0.0,0 STARLINK-3130,1 49437U 21104AF  22287.49529814 -.00000281  00000-0  46661-6 0  9999,2 49437  53.2166  25.5575 0002542  26.0216 334.0903 15.08841749 51387,6917.875,95.437,541.499,537.982,0.0
49437.0,STARLINK-3130,PAYLOAD,2022-10-14 16:39:22,15.08847817,0.0002525,53.217,24.6657,29.1608,330.9525,7.9981e-05,9.85e-06,0.0,0 STARLINK-3130,1 49437U 21104AF  22287.69401224  .00000985  00000-0  79981-4 0  9994,2 49437  53.2170  24.6657 0002525  29.1608 330.9525 15.08847817 51414,6917.856,95.437,541.4680000000002,537.975,0.0
49437.0,STARLINK-3130,PAYLOAD,2022-10-14 23:00:54,15.088559,0.0002290999999999,53.2197,23.4778,33.9821,326.1318,0.00011439,1.533e-05,0.0,0 STARLINK-3130,1 49437U 21104AF  22287.95896392  .00001533  00000-0  11439-3 0  9990,2 49437  53.2197  23.4778 0002291  33.9821 326.1318 15.08855900 52526,6917.831999999999,95.437,541.2819999999998,538.112,0.0
49437.0,STARLINK-3130,PAYLOAD,2022-10-15 11:44:00,15.08847447,0.0002508999999999,53.2204,21.1049,31.063,329.051,-1.7411e-05,-5.66e-06,0.0,0 STARLINK-3130,1 49437U 21104AF  22288.48888991 -.00000566  00000-0 -17411-4 0  9999,2 49437  53.2204  21.1049 0002509  31.0630 329.0510 15.08847447 51533,6917.858,95.437,541.4580000000002,537.987,0.0
